LEMUR-2-ROUNDTRIPPER    
1 62711U 25009DG  26175.27987173  .00007457  00000+0  54536-3 0  9996
2 62711  97.7249 257.9494 0005737 113.2102 246.9728 15.03889718 78697
LEMUR-2-MYNAMEISJEFF    
1 62712U 25009DH  26175.21172882  .00006945  00000+0  50837-3 0  9995
2 62712  97.7293 258.2670 0004056 136.6635 223.4910 15.03888977 78688
LEMUR-2-LEIA-PHILIP     
1 63246U 25052AN  26174.95291441  .00000776  00000+0  71815-4 0  9995
2 63246  97.6825  66.7900 0003349 188.0089 172.1080 14.97328919 69682
LEMUR-2-LIA-MARTIN      
1 63248U 25052AQ  26174.95572482  .00003479  00000+0  30073-3 0  9997
2 63248  97.6878  67.2775 0003462 147.0255 213.1184 14.97842877 69690
LEMUR-2-DELOITTE-1      
1 63259U 25052BB  26175.20024835  .00002931  00000+0  25543-3 0  9990
2 63259  97.6929  67.8482 0003327  81.1916 278.9683 14.97649582 69749
LEMUR-2-EMERSONROSE     
1 63261U 25052BD  26175.16854360  .00003421  00000+0  28624-3 0  9990
2 63261  97.6878  68.3875 0001888  76.1311 284.0122 14.99121027 69781
LEMUR-2-MARACHE-FRAN    
1 63262U 25052BE  26175.20577977  .00003846  00000+0  31271-3 0  9995
2 63262  97.6931  68.7567 0004704 355.1495   4.9682 15.00154270 69810
LEMUR-2-THEFALCONER     
1 63264U 25052BG  26175.16084114  .00002910  00000+0  25516-3 0  9994
2 63264  97.6849  67.4216 0001802  15.9548 344.1730 14.97422707 69735
LEMUR-2-UNTITLED-SC     
1 63351U 25061A   26175.16290778  .00003002  00000+0  17082-3 0  9998
2 63351  97.5637 150.4737 0017157 238.1119 121.8443 15.13515527 68642
LEMUR-2-ESPERANZA       
1 63352U 25061B   26174.87518465  .00003141  00000+0  17814-3 0  9999
2 63352  97.5644 150.2831 0016770 238.3402 121.6194 15.13605396 68602
LEMUR-2-KREMPEL-BRO2    
1 63353U 25061C   26174.43759694  .00002639  00000+0  14843-3 0  9993
2 63353  97.5691 150.3899 0017778 231.8982 128.0647 15.14040532 68554
LEMUR-2-THERMORAPTOR    
1 63354U 25061D   26175.21237911  .00003427  00000+0  19117-3 0  9999
2 63354  97.5694 151.2371 0017573 227.9047 132.0691 15.14126152 68674
LEMUR-2-NEUROSPICY      
1 63355U 25061E   26175.18351463  .00002918  00000+0  16290-3 0  9998
2 63355  97.5622 150.8292 0015347 231.3707 128.6151 15.14242399 68676
LEMUR-2-TILLINFINITY    
1 63356U 25061F   26175.21608173  .00003319  00000+0  18171-3 0  9992
2 63356  97.5608 151.1571 0016844 218.6724 141.3303 15.14826722 68708
LEMUR-2-KREMPEL-BRO1    
1 63357U 25061G   26174.92619477  .00003035  00000+0  16735-3 0  9998
2 63357  97.5608 150.7831 0017451 221.1852 138.8064 15.14631659 68651
LEMUR-2-LANGER2SPACE    
1 63358U 25061H   26174.68973493  .00002963  00000+0  16498-3 0  9998
2 63358  97.5614 150.3594 0015230 231.4454 128.5414 15.14324782 68602
LEMUR-2-BALTO           
1 63395U 25052BH  26175.19051158  .00005229  00000+0  42328-3 0  9990
2 63395  97.6916  68.7172 0006740  39.4690 320.7024 15.00154475 69819
LEMUR-2-KRISH           
1 64561U 25135AK  26174.76194573  .00003067  00000+0  27679-3 0  9999
2 64561  97.7746 289.5933 0001337  96.2245 263.9128 14.96255561 54908
LEMUR-2-HUBBLE-4        
1 64565U 25135AP  26174.90453204  .00001025  00000+0  10350-3 0  9998
2 64565  97.7704 288.7289 0000908 250.8554 109.2568 14.93213733 54873
LEMUR-2-SEJONG-2        
1 64586U 25135BL  26175.19092279  .00003832  00000+0  34026-3 0  9998
2 64586  97.7685 290.1634 0003093 311.1774  48.9181 14.96742141 54994
LEMUR-2-HUBBLE-5        
1 64840U 25135BT  26174.78741940  .00001462  00000+0  14198-3 0  9996
2 64840  97.7722 289.2581 0004496 329.0645  31.0310 14.94151779 54897
LEMUR-2-KARENDARRELL    
1 64841U 25135BU  26175.05514209  .00007056  00000+0  56854-3 0  9994
2 64841  97.7676 291.2515 0010282 176.0148 184.1159 15.00194717 55040
LEMUR-2-LUCILLE-ROSE    
1 65403U 25135BV  26174.56178287  .00004901  00000+0  39614-3 0  9997
2 65403  97.7751 290.7858 0011936 259.1302 100.8578 15.00216421 49595
LEMUR-2-AFFIE-WAUWIE    
1 66295U 25248C   26174.13886335  .00017919  00000+0  66599-3 0  9990
2 66295  45.3929  82.7389 0007313 125.1240 235.0336 15.27345678 35501
LEMUR-2-DEANANDMAEVE    
1 66678U 25276N   26175.16219230  .00005755  00000+0  27181-3 0  9993
2 66678  97.4212 248.5221 0005007 349.3175  10.7953 15.19804452 31477
LEMUR-2-STAS-GORBUK     
1 66686U 25276W   26175.17833426  .00004531  00000+0  21698-3 0  9990
2 66686  97.4245 248.5924 0004349 350.4928   9.6223 15.19442091 31473
LEMUR-2-TEODOR          
1 66768U 25276DG  26175.15445379  .00005246  00000+0  23888-3 0  9992
2 66768  97.4150 248.8142 0002348 109.7716 250.3773 15.21114004 31503
LEMUR-2-LAILA           
1 66776U 25276DQ  26175.19312815  .00004960  00000+0  22457-3 0  9996
2 66776  97.4172 248.9772 0002588 125.9040 234.2437 15.21337118 31514
LEMUR-2-CELIJO-SB-PK    
1 66781U 25276DW  26175.17431238  .00005308  00000+0  43055-3 0  9995
2 66781  97.5236 245.7226 0008331 115.8517 244.3567 15.00048912 23672
