OBJECT_NAME,OBJECT_ID,EPOCH,MEAN_MOTION,ECCENTRICITY,INCLINATION,RA_OF_ASC_NODE,ARG_OF_PERICENTER,MEAN_ANOMALY,EPHEMERIS_TYPE,CLASSIFICATION_TYPE,NORAD_CAT_ID,ELEMENT_SET_NO,REV_AT_EPOCH,BSTAR,MEAN_MOTION_DOT,MEAN_MOTION_DDOT
LEMUR-2-ROUNDTRIPPER,2025-009DG,2026-06-24T06:43:00.917472,15.03889718,.0005737,97.7249,257.9494,113.2102,246.9728,0,U,62711,999,7869,.54535953E-3,.7457E-4,0
LEMUR-2-MYNAMEISJEFF,2025-009DH,2026-06-24T05:04:53.370048,15.03888977,.00040561,97.7293,258.2670,136.6635,223.4910,0,U,62712,999,7868,.50837097E-3,.6945E-4,0
LEMUR-2-LEIA-PHILIP,2025-052AN,2026-06-23T22:52:11.805024,14.97328919,.00033498,97.6825,66.7900,188.0089,172.1080,0,U,63246,999,6968,.71814726E-4,.776E-5,0
LEMUR-2-LIA-MARTIN,2025-052AQ,2026-06-23T22:56:14.624448,14.97842877,.0003462,97.6878,67.2775,147.0255,213.1184,0,U,63248,999,6969,.30073135E-3,.3479E-4,0
LEMUR-2-DELOITTE-1,2025-052BB,2026-06-24T04:48:21.457440,14.97649582,.00033272,97.6929,67.8482,81.1916,278.9683,0,U,63259,999,6974,.25542882E-3,.2931E-4,0
LEMUR-2-EMERSONROSE,2025-052BD,2026-06-24T04:02:42.167040,14.99121027,.00018888,97.6878,68.3875,76.1311,284.0122,0,U,63261,999,6978,.28624376E-3,.3421E-4,0
LEMUR-2-MARACHE-FRAN,2025-052BE,2026-06-24T04:56:19.372128,15.00154270,.00047042,97.6931,68.7567,355.1495,4.9682,0,U,63262,999,6981,.31270755E-3,.3846E-4,0
LEMUR-2-THEFALCONER,2025-052BG,2026-06-24T03:51:36.674496,14.97422707,.00018022,97.6849,67.4216,15.9548,344.1730,0,U,63264,999,6973,.25515684E-3,.291E-4,0
LEMUR-2-UNTITLED-SC,2025-061A,2026-06-24T03:54:35.232192,15.13515527,.00171571,97.5637,150.4737,238.1119,121.8443,0,U,63351,999,6864,.17081929E-3,.3002E-4,0
LEMUR-2-ESPERANZA,2025-061B,2026-06-23T21:00:15.953760,15.13605396,.001677,97.5644,150.2831,238.3402,121.6194,0,U,63352,999,6860,.17813887E-3,.3141E-4,0
LEMUR-2-KREMPEL-BRO2,2025-061C,2026-06-23T10:30:08.375616,15.14040532,.00177784,97.5691,150.3899,231.8982,128.0647,0,U,63353,999,6855,.14842691E-3,.2639E-4,0
LEMUR-2-THERMORAPTOR,2025-061D,2026-06-24T05:05:49.555104,15.14126152,.00175731,97.5694,151.2371,227.9047,132.0691,0,U,63354,999,6867,.19117162E-3,.3427E-4,0
LEMUR-2-NEUROSPICY,2025-061E,2026-06-24T04:24:15.664032,15.14242399,.00153475,97.5622,150.8292,231.3707,128.6151,0,U,63355,999,6867,.1628993E-3,.2918E-4,0
LEMUR-2-TILLINFINITY,2025-061F,2026-06-24T05:11:09.461472,15.14826722,.00168446,97.5608,151.1571,218.6724,141.3303,0,U,63356,999,6870,.18171317E-3,.3319E-4,0
LEMUR-2-KREMPEL-BRO1,2025-061G,2026-06-23T22:13:43.228128,15.14631659,.00174517,97.5608,150.7831,221.1852,138.8064,0,U,63357,999,6865,.16735288E-3,.3035E-4,0
LEMUR-2-LANGER2SPACE,2025-061H,2026-06-23T16:33:13.097952,15.14324782,.00152308,97.5614,150.3594,231.4454,128.5414,0,U,63358,999,6860,.16498106E-3,.2963E-4,0
LEMUR-2-BALTO,2025-052BH,2026-06-24T04:34:20.200512,15.00154475,.00067402,97.6916,68.7172,39.4690,320.7024,0,U,63395,999,6981,.42328481E-3,.5229E-4,0
LEMUR-2-KRISH,2025-135AK,2026-06-23T18:17:12.111072,14.96255561,.00013378,97.7746,289.5933,96.2245,263.9128,0,U,64561,999,5490,.27679336E-3,.3067E-4,0
LEMUR-2-HUBBLE-4,2025-135AP,2026-06-23T21:42:31.568256,14.93213733,.00009084,97.7704,288.7289,250.8554,109.2568,0,U,64565,999,5487,.10350019E-3,.1025E-4,0
LEMUR-2-SEJONG-2,2025-135BL,2026-06-24T04:34:55.729056,14.96742141,.00030936,97.7685,290.1634,311.1774,48.9181,0,U,64586,999,5499,.340263E-3,.3832E-4,0
LEMUR-2-HUBBLE-5,2025-135BT,2026-06-23T18:53:53.036160,14.94151779,.00044961,97.7722,289.2581,329.0645,31.0310,0,U,64840,999,5489,.14197876E-3,.1462E-4,0
LEMUR-2-KARENDARRELL,2025-135BU,2026-06-24T01:19:24.276576,15.00194717,.00102825,97.7676,291.2515,176.0148,184.1159,0,U,64841,999,5504,.5685398E-3,.7056E-4,0
LEMUR-2-LUCILLE-ROSE,2025-135BV,2026-06-23T13:28:58.039968,15.00216421,.00119362,97.7751,290.7858,259.1302,100.8578,0,U,65403,999,4959,.39614162E-3,.4901E-4,0
LEMUR-2-AFFIE-WAUWIE,2025-248C,2026-06-23T03:19:57.793440,15.27345678,.00073138,45.3929,82.7389,125.1240,235.0336,0,U,66295,999,3550,.66598968E-3,.17919E-3,0
LEMUR-2-DEANANDMAEVE,2025-276N,2026-06-24T03:53:33.414720,15.19804452,.00050076,97.4212,248.5221,349.3175,10.7953,0,U,66678,999,3147,.27180821E-3,.5755E-4,0
LEMUR-2-STAS-GORBUK,2025-276W,2026-06-24T04:16:48.080064,15.19442091,.00043491,97.4245,248.5924,350.4928,9.6223,0,U,66686,999,3147,.21698177E-3,.4531E-4,0
LEMUR-2-TEODOR,2025-276DG,2026-06-24T03:42:24.807456,15.21114004,.0002348,97.4150,248.8142,109.7716,250.3773,0,U,66768,999,3150,.23887653E-3,.5246E-4,0
LEMUR-2-LAILA,2025-276DQ,2026-06-24T04:38:06.272160,15.21337118,.00025883,97.4172,248.9772,125.9040,234.2437,0,U,66776,999,3151,.22456916E-3,.496E-4,0
LEMUR-2-CELIJO-SB-PK,2025-276DW,2026-06-24T04:11:00.589632,15.00048912,.00083316,97.5236,245.7226,115.8517,244.3567,0,U,66781,999,2367,.43054707E-3,.5308E-4,0
